[{"OBJECT_NAME":"PLEIADES 1A","OBJECT_ID":"2011-076F","EPOCH":"2026-03-09T22:28:30.112032","MEAN_MOTION":14.5854003,"ECCENTRICITY":0.00017089,"INCLINATION":98.204,"RA_OF_ASC_NODE":145.3465,"ARG_OF_PERICENTER":88.1046,"MEAN_ANOMALY":20.7914,"EPHEMERIS_TYPE":0,"CLASSIFICATION_TYPE":"U","NORAD_CAT_ID":38012,"ELEMENT_SET_NO":999,"REV_AT_EPOCH":75752,"BSTAR":9.8090711e-5,"MEAN_MOTION_DOT":4.1e-6,"MEAN_MOTION_DDOT":0},{"OBJECT_NAME":"CZ-6A DEB","OBJECT_ID":"2024-140WN","EPOCH":"2026-03-09T13:06:34.625376","MEAN_MOTION":14.50856839,"ECCENTRICITY":0.00876654,"INCLINATION":88.741,"RA_OF_ASC_NODE":265.4316,"ARG_OF_PERICENTER":178.9992,"MEAN_ANOMALY":181.1408,"EPHEMERIS_TYPE":0,"CLASSIFICATION_TYPE":"U","NORAD_CAT_ID":61373,"ELEMENT_SET_NO":999,"REV_AT_EPOCH":7964,"BSTAR":0.0023115266,"MEAN_MOTION_DOT":9.599e-5,"MEAN_MOTION_DDOT":0}]
